[{"OBJECT_NAME":"LEMUR-2-AMANDA-SVANTE","OBJECT_ID":"2021-034B","EPOCH":"2026-03-09T18:37:58.823328","MEAN_MOTION":15.28469003,"ECCENTRICITY":0.00027027,"INCLINATION":97.5829,"RA_OF_ASC_NODE":144.8625,"ARG_OF_PERICENTER":205.4721,"MEAN_ANOMALY":154.6385,"EPHEMERIS_TYPE":0,"CLASSIFICATION_TYPE":"U","NORAD_CAT_ID":48269,"ELEMENT_SET_NO":999,"REV_AT_EPOCH":26584,"BSTAR":0.0011134246,"MEAN_MOTION_DOT":0.00030872,"MEAN_MOTION_DDOT":0},{"OBJECT_NAME":"STARLINK-32804","OBJECT_ID":"2025-019T","EPOCH":"2026-03-09T10:45:52.428672","MEAN_MOTION":15.2759978,"ECCENTRICITY":0.00028227,"INCLINATION":43.0083,"RA_OF_ASC_NODE":90.3825,"ARG_OF_PERICENTER":284.4195,"MEAN_ANOMALY":75.6344,"EPHEMERIS_TYPE":0,"CLASSIFICATION_TYPE":"U","NORAD_CAT_ID":62846,"ELEMENT_SET_NO":999,"REV_AT_EPOCH":6221,"BSTAR":0.00083860627,"MEAN_MOTION_DOT":0.00022901,"MEAN_MOTION_DDOT":0}]
